OBJECT_NAME,OBJECT_ID,EPOCH,MEAN_MOTION,ECCENTRICITY,INCLINATION,RA_OF_ASC_NODE,ARG_OF_PERICENTER,MEAN_ANOMALY,EPHEMERIS_TYPE,CLASSIFICATION_TYPE,NORAD_CAT_ID,ELEMENT_SET_NO,REV_AT_EPOCH,BSTAR,MEAN_MOTION_DOT,MEAN_MOTION_DDOT
GSAT0101 (GALILEO-PFM),2011-060A,2026-05-18T12:27:39.796704,1.70475570,.0003697,57.0042,342.5656,40.2031,319.8521,0,U,37846,999,9061,0,-.76E-6,0
GSAT0102 (GALILEO-FM2),2011-060B,2026-05-18T09:51:09.929376,1.70475809,.00040139,57.0077,342.5691,10.0435,328.9075,0,U,37847,999,9061,0,-.75E-6,0
GSAT0103 (GALILEO-FM3),2012-055A,2026-05-16T19:11:49.180992,1.70473321,.00056455,55.7880,102.4060,299.2123,60.6822,0,U,38857,999,8447,0,.3E-6,0
GSAT0201 (GALILEO 5),2014-050A,2026-05-14T23:59:43.082016,1.85519851,.16695265,48.9120,274.7959,178.0972,182.6426,0,U,40128,999,7770,0,-.5E-6,0
GSAT0202 (GALILEO 6),2014-050B,2026-05-19T00:40:50.295360,1.85520448,.16712719,48.9252,273.7160,178.9822,181.4323,0,U,40129,999,7994,0,-.43E-6,0
GSAT0203 (GALILEO 7),2015-017A,2026-05-18T21:12:31.454496,1.70475883,.00024714,56.7962,342.3942,296.5995,63.4010,0,U,40544,999,6870,0,-.78E-6,0
GSAT0204 (GALILEO 8),2015-017B,2026-05-17T23:11:24.972000,1.70475429,.00018547,56.8028,342.4377,272.9045,87.1039,0,U,40545,999,3173,0,-.74E-6,0
GSAT0205 (GALILEO 9),2015-045A,2026-04-25T15:10:52.485888,1.67410754,.00051595,54.9613,223.1764,266.9978,92.9342,0,U,40889,999,6608,0,-.38E-6,0
GSAT0206 (GALILEO 10),2015-045B,2026-05-18T12:59:48.558336,1.70473897,.00015958,54.9534,222.4232,17.2702,342.8037,0,U,40890,999,6653,0,.18E-6,0
GSAT0209 (GALILEO 12),2015-079A,2026-05-18T02:56:53.947104,1.70473844,.0005628,55.8109,102.0857,333.9639,25.9552,0,U,41174,999,6426,0,.22E-6,0
GSAT0208 (GALILEO 11),2015-079B,2026-05-18T08:14:06.437184,1.70473736,.0005091,55.8088,102.0767,335.0314,24.8914,0,U,41175,999,6468,0,.21E-6,0
GSAT0211 (GALILEO 14),2016-030A,2026-05-18T11:12:51.734016,1.70473951,.00024726,55.1040,222.5126,334.1936,25.8623,0,U,41549,999,6216,0,.19E-6,0
GSAT0210 (GALILEO 13),2016-030B,2026-05-16T09:04:36.314112,1.70474053,.000312,55.1026,222.5678,229.9283,130.1038,0,U,41550,999,6212,0,.22E-6,0
GSAT0207 (GALILEO 15),2016-069A,2026-05-18T09:59:10.178592,1.70473734,.00057707,55.4810,101.9093,322.4147,37.4924,0,U,41859,999,5889,0,.2E-6,0
GSAT0212 (GALILEO 16),2016-069B,2026-05-14T03:55:25.612032,1.70473991,.00047534,55.4761,102.0219,345.7526,14.2010,0,U,41860,999,5907,0,.49E-6,0
GSAT0213 (GALILEO 17),2016-069C,2026-05-16T21:03:01.711296,1.70474360,.00056461,55.4801,101.9549,306.4907,53.4077,0,U,41861,999,5898,0,.28E-6,0
GSAT0214 (GALILEO 18),2016-069D,2026-05-17T14:38:10.429152,1.70473890,.00047027,55.4792,101.9272,313.0617,46.8471,0,U,41862,999,5912,0,.23E-6,0
GSAT0215 (GALILEO 19),2017-079A,2026-05-16T08:09:52.962048,1.70474546,.00024937,55.0824,222.3832,261.6938,98.3376,0,U,43055,999,5244,0,.22E-6,0
GSAT0216 (GALILEO 20),2017-079B,2026-05-16T01:04:29.366976,1.70474841,.00020271,55.0833,222.3915,282.3954,77.6397,0,U,43056,999,5245,0,.21E-6,0
GSAT0217 (GALILEO 21),2017-079C,2026-05-19T04:45:49.226688,1.70474628,.00037576,55.0798,222.3024,286.9220,73.1057,0,U,43057,999,5249,0,.14E-6,0
GSAT0218 (GALILEO 22),2017-079D,2026-05-15T07:29:56.912928,1.70474663,.00050676,55.0810,222.4069,272.5633,87.4315,0,U,43058,999,5245,0,.19E-6,0
GSAT0221 (GALILEO 25),2018-060A,2026-05-16T23:25:32.232864,1.70475697,.0003228,57.1788,342.6232,316.4225,43.5865,0,U,43564,999,4863,0,-.69E-6,0
GSAT0222 (GALILEO 26),2018-060B,2026-05-17T18:46:26.667840,1.70475454,.00019372,57.1823,342.6049,276.5659,83.4431,0,U,43565,999,4869,0,-.72E-6,0
GSAT0219 (GALILEO 23),2018-060C,2026-05-18T14:09:15.861024,1.70475706,.00027421,57.1813,342.5845,333.6211,26.3925,0,U,43566,999,4868,0,-.76E-6,0
GSAT0220 (GALILEO 24),2018-060D,2026-05-17T01:13:25.593888,1.70475366,.00029862,57.1815,342.6264,324.1445,35.8697,0,U,43567,999,4864,0,-.69E-6,0
GSAT0223 (GALILEO 27),2021-116A,2026-05-18T08:42:38.510208,1.70475558,.00006925,57.1678,342.4802,203.3273,332.6842,0,U,49809,999,2767,0,-.75E-6,0
GSAT0224 (GALILEO 28),2021-116B,2026-05-18T04:22:33.125376,1.70475579,.00004669,57.1724,342.4839,130.5290,47.2520,0,U,49810,999,2769,0,-.74E-6,0
GSAT0225 (GALILEO 29),2024-079A,2026-05-17T14:21:59.289696,1.70474017,.00023023,55.1013,101.9339,286.2726,246.4703,0,U,59598,999,1279,0,.23E-6,0
GSAT0227 (GALILEO 30),2024-079C,2026-05-19T06:14:42.861120,1.70474106,.00016228,55.0977,101.8862,28.2313,331.7261,0,U,59600,999,1287,0,.18E-6,0
GSAT0232 (GALILEO 32),2024-167A,2026-05-18T11:12:34.104960,1.70474286,.00055516,55.1930,222.1291,220.0029,228.7103,0,U,61182,999,1037,0,.19E-6,0
